{"type": "FeatureCollection", "features": [ {"type": "Feature", "properties": {"norad_id": 39634, "name": "SENTINEL-1A", "group": "resource", "lat": 34.30074238916039, "lon": -7.113095330083552, "alt_km": 692.9364742888947, "timestamp": "2025-12-19T08:58:48.994468+00:00", "meta": {"OBJECT_NAME": "SENTINEL-1A", "OBJECT_ID": "2014-016A", "EPOCH": "2025-12-18T22:56:51.022176", "MEAN_MOTION": 14.59201776, "ECCENTRICITY": 0.00012291, "INCLINATION": 98.1798, "RA_OF_ASC_NODE": 358.1061, "ARG_OF_PERICENTER": 82.7076, "MEAN_ANOMALY": 277.4264, "EPHEMERIS_TYPE": 0, "CLASSIFICATION_TYPE": "U", "NORAD_CAT_ID": 39634, "ELEMENT_SET_NO": 999, "REV_AT_EPOCH": 62373, "BSTAR": 4.4408232e-05, "MEAN_MOTION_DOT": 1.64e-06, "MEAN_MOTION_DDOT": 0}, "tle": {"line1": "1 39634U 14016A   25352.95614609  .00000164  00000+0  44408-4 0  9998", "line2": "2 39634  98.1798 358.1061 0001229  82.7076 277.4264 14.59201776623732"}}, "geometry": {"type": "Point", "coordinates": [-7.113095330083552, 34.30074238916039]}}, {"type": "Feature", "properties": {"norad_id": 39731, "name": "KAZEOSAT 1", "group": "resource", "lat": -38.91133192893944, "lon": 71.93649483524472, "alt_km": 758.7129931797954, "timestamp": "2025-12-19T08:58:48.994478+00:00", "meta": {"OBJECT_NAME": "KAZEOSAT 1", "OBJECT_ID": "2014-024A", "EPOCH": "2025-12-18T23:10:16.310784", "MEAN_MOTION": 14.42065284, "ECCENTRICITY": 0.00011534, "INCLINATION": 98.3434, "RA_OF_ASC_NODE": 64.7336, "ARG_OF_PERICENTER": 97.78, "MEAN_ANOMALY": 262.3521, "EPHEMERIS_TYPE": 0, "CLASSIFICATION_TYPE": "U", "NORAD_CAT_ID": 39731, "ELEMENT_SET_NO": 999, "REV_AT_EPOCH": 61258, "BSTAR": 2.4239836e-05, "MEAN_MOTION_DOT": 3.7e-07, "MEAN_MOTION_DDOT": 0}, "tle": {"line1": "1 39731U 14024A   25352.96546656  .00000037  00000+0  24240-4 0  9993", "line2": "2 39731  98.3434  64.7336 0001153  97.7800 262.3521 14.42065284612585"}}, "geometry": {"type": "Point", "coordinates": [71.93649483524472, -38.91133192893944]}}, {"type": "Feature", "properties": {"norad_id": 39766, "name": "ALOS-2", "group": "resource", "lat": 16.39448893503631, "lon": 85.77778870439003, "alt_km": 631.5737875929944, "timestamp": "2025-12-19T08:58:48.994487+00:00", "meta": {"OBJECT_NAME": "ALOS-2", "OBJECT_ID": "2014-029A", "EPOCH": "2025-12-19T02:24:46.375200", "MEAN_MOTION": 14.79465658, "ECCENTRICITY": 0.0001401, "INCLINATION": 97.9229, "RA_OF_ASC_NODE": 87.8563, "ARG_OF_PERICENTER": 102.1345, "MEAN_ANOMALY": 258.0023, "EPHEMERIS_TYPE": 0, "CLASSIFICATION_TYPE": "U", "NORAD_CAT_ID": 39766, "ELEMENT_SET_NO": 999, "REV_AT_EPOCH": 62495, "BSTAR": 0.0002541, "MEAN_MOTION_DOT": 1.846e-05, "MEAN_MOTION_DDOT": 0}, "tle": {"line1": "1 39766U 14029A   25353.10053675  .00001846  00000+0  25410-3 0  9995", "line2": "2 39766  97.9229  87.8563 0001401 102.1345 258.0023 14.79465658624951"}}, "geometry": {"type": "Point", "coordinates": [85.77778870439003, 16.39448893503631]}}, {"type": "Feature", "properties": {"norad_id": 40010, "name": "KAZEOSAT 2", "group": "resource", "lat": 61.63853447698664, "lon": -176.87721420961685, "alt_km": 609.9275054268874, "timestamp": "2025-12-19T08:58:48.994498+00:00", "meta": {"OBJECT_NAME": "KAZEOSAT 2", "OBJECT_ID": "2014-033A", "EPOCH": "2025-12-18T22:59:50.368704", "MEAN_MOTION": 14.8517952, "ECCENTRICITY": 0.00081163, "INCLINATION": 97.5502, "RA_OF_ASC_NODE": 196.9514, "ARG_OF_PERICENTER": 184.6213, "MEAN_ANOMALY": 175.493, "EPHEMERIS_TYPE": 0, "CLASSIFICATION_TYPE": "U", "NORAD_CAT_ID": 40010, "ELEMENT_SET_NO": 999, "REV_AT_EPOCH": 62220, "BSTAR": 9.5634658e-05, "MEAN_MOTION_DOT": 7.69e-06, "MEAN_MOTION_DDOT": 0}, "tle": {"line1": "1 40010U 14033A   25352.95822186  .00000769  00000+0  95635-4 0  9997", "line2": "2 40010  97.5502 196.9514 0008116 184.6213 175.4930 14.85179520622204"}}, "geometry": {"type": "Point", "coordinates": [-176.87721420961685, 61.63853447698664]}}, {"type": "Feature", "properties": {"norad_id": 40011, "name": "HODOYOSHI-4", "group": "resource", "lat": -25.8015259363279, "lon": -1.7414503349482027, "alt_km": 596.8030835132085, "timestamp": "2025-12-19T08:58:48.994508+00:00", "meta": {"OBJECT_NAME": "HODOYOSHI-4", "OBJECT_ID": "2014-033B", "EPOCH": "2025-12-18T22:22:16.458816", "MEAN_MOTION": 14.87502516, "ECCENTRICITY": 0.00236099, "INCLINATION": 97.5406, "RA_OF_ASC_NODE": 181.5102, "ARG_OF_PERICENTER": 179.9029, "MEAN_ANOMALY": 180.2197, "EPHEMERIS_TYPE": 0, "CLASSIFICATION_TYPE": "U", "NORAD_CAT_ID": 40011, "ELEMENT_SET_NO": 999, "REV_AT_EPOCH": 62200, "BSTAR": 0.0001547358, "MEAN_MOTION_DOT": 1.358e-05, "MEAN_MOTION_DDOT": 0}, "tle": {"line1": "1 40011U 14033B   25352.93213494  .00001358  00000+0  15474-3 0  9999", "line2": "2 40011  97.5406 181.5102 0023609 179.9029 180.2197 14.87502516622001"}}, "geometry": {"type": "Point", "coordinates": [-1.7414503349482027, -25.8015259363279]}}, {"type": "Feature", "properties": {"norad_id": 40013, "name": "DEIMOS-2", "group": "resource", "lat": 45.32649599670145, "lon": 56.72335218097914, "alt_km": 583.8781637746752, "timestamp": "2025-12-19T08:58:48.994518+00:00", "meta": {"OBJECT_NAME": "DEIMOS-2", "OBJECT_ID": "2014-033D", "EPOCH": "2025-12-18T22:43:51.110112", "MEAN_MOTION": 14.93000264, "ECCENTRICITY": 0.00013584, "INCLINATION": 97.6067, "RA_OF_ASC_NODE": 228.542, "ARG_OF_PERICENTER": 107.263, "MEAN_ANOMALY": 252.8739, "EPHEMERIS_TYPE": 0, "CLASSIFICATION_TYPE": "U", "NORAD_CAT_ID": 40013, "ELEMENT_SET_NO": 999, "REV_AT_EPOCH": 61082, "BSTAR": 0.0002427649, "MEAN_MOTION_DOT": 2.469e-05, "MEAN_MOTION_DDOT": 0}, "tle": {"line1": "1 40013U 14033D   25352.94711933  .00002469  00000+0  24276-3 0  9997", "line2": "2 40013  97.6067 228.5420 0001358 107.2630 252.8739 14.93000264610826"}}, "geometry": {"type": "Point", "coordinates": [56.72335218097914, 45.32649599670145]}}, {"type": "Feature", "properties": {"norad_id": 40015, "name": "HODOYOSHI-3", "group": "resource", "lat": 66.06297275961866, "lon": 141.36760377941823, "alt_km": 628.5434123464902, "timestamp": "2025-12-19T08:58:48.994529+00:00", "meta": {"OBJECT_NAME": "HODOYOSHI-3", "OBJECT_ID": "2014-033F", "EPOCH": "2025-12-18T22:58:21.507168", "MEAN_MOTION": 14.84827132, "ECCENTRICITY": 0.00321499, "INCLINATION": 97.6203, "RA_OF_ASC_NODE": 158.522, "ARG_OF_PERICENTER": 226.7251, "MEAN_ANOMALY": 133.1281, "EPHEMERIS_TYPE": 0, "CLASSIFICATION_TYPE": "U", "NORAD_CAT_ID": 40015, "ELEMENT_SET_NO": 999, "REV_AT_EPOCH": 62087, "BSTAR": 0.00015428862, "MEAN_MOTION_DOT": 1.27e-05, "MEAN_MOTION_DDOT": 0}, "tle": {"line1": "1 40015U 14033F   25352.95719337  .00001270  00000+0  15429-3 0  9995", "line2": "2 40015  97.6203 158.5220 0032149 226.7251 133.1281 14.84827132620878"}}, "geometry": {"type": "Point", "coordinates": [141.36760377941823, 66.06297275961866]}}, {"type": "Feature", "properties": {"norad_id": 40053, "name": "SPOT 7", "group": "resource", "lat": -62.822699138946675, "lon": 71.38124714052573, "alt_km": 698.8755936876087, "timestamp": "2025-12-19T08:58:48.994539+00:00", "meta": {"OBJECT_NAME": "SPOT 7", "OBJECT_ID": "2014-034A", "EPOCH": "2025-12-18T23:24:31.813344", "MEAN_MOTION": 14.60741449, "ECCENTRICITY": 0.00015442, "INCLINATION": 98.0905, "RA_OF_ASC_NODE": 54.9074, "ARG_OF_PERICENTER": 83.7619, "MEAN_ANOMALY": 276.3758, "EPHEMERIS_TYPE": 0, "CLASSIFICATION_TYPE": "U", "NORAD_CAT_ID": 40053, "ELEMENT_SET_NO": 999, "REV_AT_EPOCH": 61082, "BSTAR": 0.00010171102, "MEAN_MOTION_DOT": 4.5e-06, "MEAN_MOTION_DDOT": 0}, "tle": {"line1": "1 40053U 14034A   25352.97536821  .00000450  00000+0  10171-3 0  9993", "line2": "2 40053  98.0905  54.9074 0001544  83.7619 276.3758 14.60741449610827"}}, "geometry": {"type": "Point", "coordinates": [71.38124714052573, -62.822699138946675]}}, {"type": "Feature", "properties": {"norad_id": 40072, "name": "SKYSAT-B", "group": "resource", "lat": 33.76789537006272, "lon": 123.07475102763985, "alt_km": 599.701623238102, "timestamp": "2025-12-19T08:58:48.994549+00:00", "meta": {"OBJECT_NAME": "SKYSAT-B", "OBJECT_ID": "2014-037D", "EPOCH": "2025-12-18T19:24:39.195072", "MEAN_MOTION": 14.87348069, "ECCENTRICITY": 0.00065151, "INCLINATION": 98.3619, "RA_OF_ASC_NODE": 296.8355, "ARG_OF_PERICENTER": 133.0045, "MEAN_ANOMALY": 227.1716, "EPHEMERIS_TYPE": 0, "CLASSIFICATION_TYPE": "U", "NORAD_CAT_ID": 40072, "ELEMENT_SET_NO": 999, "REV_AT_EPOCH": 61914, "BSTAR": 0.00015223593, "MEAN_MOTION_DOT": 1.314e-05, "MEAN_MOTION_DDOT": 0}, "tle": {"line1": "1 40072U 14037D   25352.80878698  .00001314  00000+0  15224-3 0  9994", "line2": "2 40072  98.3619 296.8355 0006515 133.0045 227.1716 14.87348069619149"}}, "geometry": {"type": "Point", "coordinates": [123.07475102763985, 33.76789537006272]}}, {"type": "Feature", "properties": {"norad_id": 40115, "name": "WORLDVIEW-3 (WV-3)", "group": "resource", "lat": -11.818494117423459, "lon": 67.23206758411013, "alt_km": 620.1022521201667, "timestamp": "2025-12-19T08:58:48.994559+00:00", "meta": {"OBJECT_NAME": "WORLDVIEW-3 (WV-3)", "OBJECT_ID": "2014-048A", "EPOCH": "2025-12-18T21:42:40.567680", "MEAN_MOTION": 14.84661456, "ECCENTRICITY": 0.00017113, "INCLINATION": 97.8774, "RA_OF_ASC_NODE": 65.108, "ARG_OF_PERICENTER": 138.8396, "MEAN_ANOMALY": 221.2947, "EPHEMERIS_TYPE": 0, "CLASSIFICATION_TYPE": "U", "NORAD_CAT_ID": 40115, "ELEMENT_SET_NO": 999, "REV_AT_EPOCH": 61515, "BSTAR": 0.00010574139, "MEAN_MOTION_DOT": 8.41e-06, "MEAN_MOTION_DDOT": 0}, "tle": {"line1": "1 40115U 14048A   25352.90463620  .00000841  00000+0  10574-3 0  9997", "line2": "2 40115  97.8774  65.1080 0001711 138.8396 221.2947 14.84661456615153"}}, "geometry": {"type": "Point", "coordinates": [67.23206758411013, -11.818494117423459]}}]}